<?xml version="1.0" encoding="UTF-8" standalone="yes"?>
<!DOCTYPE shakemap-data [
<!ELEMENT shakemap-data (earthquake,stationlist)>
<!ELEMENT stationlist (station+)>
<!ATTLIST stationlist
  created	CDATA	#REQUIRED
>

<!ELEMENT station (comp+)>
<!ATTLIST station
  code		CDATA 			#REQUIRED
  name		CDATA 			#REQUIRED
  insttype	CDATA 			#REQUIRED
  lat		CDATA 			#REQUIRED
  lon		CDATA 			#REQUIRED
  source	(SCSN|CGS|NSMP) 	'SCSN'
  netid		CDATA			#REQUIRED
  commtype	(DIG|ANA) 		'DIG'
  dist          CDATA                   '10.0'
  loc		CDATA			''
>

<!ELEMENT comp (acc,vel,psa*)>
<!ATTLIST comp
  name          CDATA  #REQUIRED
  originalname  CDATA  #IMPLIED
>

<!ELEMENT acc EMPTY>
<!ELEMENT vel EMPTY>
<!ELEMENT psa03 EMPTY>
<!ELEMENT psa10 EMPTY>
<!ELEMENT psa30 EMPTY>
<!ATTLIST acc
  value  CDATA         #REQUIRED
  flag   CDATA        ''
>
<!ATTLIST vel
  value CDATA          #REQUIRED
  flag  CDATA         ''
>
<!ATTLIST psa03
  value CDATA          #REQUIRED
  flag  CDATA         ''
>
<!ATTLIST psa10
  value CDATA          #REQUIRED
  flag  CDATA         ''
>
<!ATTLIST psa30
  value CDATA          #REQUIRED
  flag  CDATA         ''
>
<!ELEMENT  earthquake EMPTY>
<!ATTLIST earthquake
  id 		ID	#REQUIRED
  lat		CDATA	#REQUIRED
  lon		CDATA	#REQUIRED
  mag		CDATA	#REQUIRED
  year          CDATA   #REQUIRED
  month         CDATA   #REQUIRED
  day           CDATA   #REQUIRED
  hour          CDATA   #REQUIRED
  minute        CDATA   #REQUIRED
  second        CDATA   #REQUIRED
  timezone      CDATA   #REQUIRED
  depth		CDATA	#REQUIRED
  type		CDATA	#REQUIRED
  locstring	CDATA	#REQUIRED
  pga		CDATA   #REQUIRED
  pgv		CDATA   #REQUIRED
  sp03		CDATA   #REQUIRED
  sp10		CDATA   #REQUIRED
  sp30		CDATA   #REQUIRED
  created	CDATA	#REQUIRED
>
]>
<shakemap-data code_version="3.5" map_version="1">
<earthquake id="20150105174842" lat="-43.06" lon="171.25" mag="5.6" year="2015" month="1" day="5" hour="17" minute="48" second="42" timezone="GMT" depth="5" network="" locstring="2015p012816 / -43.3169 / 171.59" created="1424388090" />
<stationlist created="1424388090">
<station code="ABAZ" name="ABAZ" insttype="LE-3DliteMkII" lat="-36.6002" lon="174.832" dist="778.971051" source="" netid="" commtype="" loc="" intensity="3.5">
<comp name="EHE">
<acc value="0.0069" flag="T" />
<vel value="0.7541" flag="T" />
<psa03 value="0.1994" flag="T" />
<psa10 value="0.1631" flag="T" />
<psa30 value="0.1418" flag="T" />
</comp>
<comp name="EHN">
<acc value="0.0064" flag="T" />
<vel value="0.2569" flag="T" />
<psa03 value="0.0683" flag="T" />
<psa10 value="0.0558" flag="T" />
<psa30 value="0.0488" flag="T" />
</comp>
<comp name="EHZ">
<acc value="0.0033" flag="T" />
<vel value="0.3396" flag="T" />
<psa03 value="0.0893" flag="T" />
<psa10 value="0.0732" flag="T" />
<psa30 value="0.0634" flag="T" />
</comp>
</station>
<station code="AKCZ" name="AKCZ" insttype="LE-3DliteMkII" lat="-43.8721" lon="172.91" dist="159.981752" source="" netid="" commtype="" loc="" intensity="4.5" intensity_flag="T">
<comp name="EHE">
<acc value="0.2320" flag="0" />
<vel value="2.9579" flag="T" />
<psa03 value="0.7818" flag="0" />
<psa10 value="0.6396" flag="0" />
<psa30 value="0.5560" flag="T" />
</comp>
<comp name="EHN">
<acc value="0.2031" flag="0" />
<vel value="3.4582" flag="T" />
<psa03 value="0.9143" flag="0" />
<psa10 value="0.7479" flag="0" />
<psa30 value="0.6504" flag="T" />
</comp>
<comp name="EHZ">
<acc value="0.1833" flag="0" />
<vel value="1.8067" flag="T" />
<psa03 value="0.4770" flag="0" />
<psa10 value="0.3904" flag="0" />
<psa30 value="0.3391" flag="T" />
</comp>
</station>
<station code="AKSS" name="AKSS" insttype="FBA-ES-T-BASALT" lat="-43.8109" lon="172.963" dist="159.984782" source="" netid="" commtype="" loc="" intensity="2.5">
<comp name="HN2">
<acc value="0.1701" flag="0" />
<vel value="0.1286" flag="0" />
<psa03 value="0.2380" flag="0" />
<psa10 value="0.1654" flag="0" />
<psa30 value="0.0363" flag="0" />
</comp>
<comp name="HNZ">
<acc value="0.1045" flag="0" />
<vel value="0.1276" flag="0" />
<psa03 value="0.1624" flag="0" />
<psa10 value="0.1492" flag="0" />
<psa30 value="0.0390" flag="0" />
</comp>
<comp name="HN1">
<acc value="0.1455" flag="0" />
<vel value="0.1688" flag="0" />
<psa03 value="0.4071" flag="0" />
<psa10 value="0.2150" flag="0" />
<psa30 value="0.0309" flag="0" />
</comp>
</station>
<station code="ALRZ" name="ALRZ" insttype="L4C-3D" lat="-38.562" lon="176.343" dist="656.874638" source="" netid="" commtype="" loc="" intensity="1.5">
<comp name="EHE">
<acc value="0.0077" flag="T" />
<vel value="0.0311" flag="T" />
<psa03 value="0.0096" flag="T" />
<psa10 value="0.0238" flag="0" />
<psa30 value="0.0148" flag="0" />
</comp>
<comp name="EHN">
<acc value="0.0056" flag="T" />
<vel value="0.0410" flag="T" />
<psa03 value="0.0108" flag="T" />
<psa10 value="0.0137" flag="0" />
<psa30 value="0.0096" flag="0" />
</comp>
<comp name="EHZ">
<acc value="0.0036" flag="T" />
<vel value="0.0349" flag="T" />
<psa03 value="0.0093" flag="T" />
<psa10 value="0.0096" flag="0" />
<psa30 value="0.0066" flag="0" />
</comp>
</station>
<station code="AMCZ" name="AMCZ" insttype="LE-3Dlite" lat="-43.1765" lon="172.651" dist="112.906272" source="" netid="" commtype="" loc="" intensity="7.0" intensity_flag="T">
<comp name="EHE">
<acc value="0.7366" flag="0" />
<vel value="15.8599" flag="T" />
<psa03 value="4.1903" flag="T" />
<psa10 value="3.4285" flag="T" />
<psa30 value="2.9806" flag="T" />
</comp>
<comp name="EHN">
<acc value="0.9342" flag="0" />
<vel value="21.0722" flag="T" />
<psa03 value="5.5692" flag="T" />
<psa10 value="4.5561" flag="T" />
<psa30 value="3.9616" flag="T" />
</comp>
<comp name="EHZ">
<acc value="0.3427" flag="0" />
<vel value="5.7759" flag="T" />
<psa03 value="1.5267" flag="T" />
<psa10 value="1.2489" flag="T" />
<psa30 value="1.0861" flag="T" />
</comp>
</station>
<station code="ANWZ" name="ANWZ" insttype="L4C-3D" lat="-40.4597" lon="176.475" dist="519.265606" source="" netid="" commtype="" loc="" intensity="2.0">
<comp name="EHE">
<acc value="0.0170" flag="T" />
<vel value="0.0734" flag="T" />
<psa03 value="0.0385" flag="T" />
<psa10 value="0.0275" flag="0" />
<psa30 value="0.0258" flag="0" />
</comp>
<comp name="EHN">
<acc value="0.0212" flag="T" />
<vel value="0.0224" flag="T" />
<psa03 value="0.0455" flag="T" />
<psa10 value="0.0334" flag="0" />
<psa30 value="0.0099" flag="0" />
</comp>
<comp name="EHZ">
<acc value="0.0087" flag="T" />
<vel value="0.0329" flag="T" />
<psa03 value="0.0349" flag="T" />
<psa10 value="0.0178" flag="0" />
<psa30 value="0.0190" flag="0" />
</comp>
</station>
<station code="APZ" name="APZ" insttype="CMG-3ESP" lat="-46.8318" lon="167.989" dist="490.028274" source="" netid="" commtype="" loc="" intensity="1.2">
<comp name="HHE">
<acc value="0.0097" flag="0" />
<vel value="0.0306" flag="0" />
<psa03 value="0.0128" flag="0" />
<psa10 value="0.0171" flag="0" />
<psa30 value="0.0120" flag="0" />
</comp>
<comp name="HHZ">
<acc value="0.0054" flag="0" />
<vel value="0.0226" flag="0" />
<psa03 value="0.0066" flag="0" />
<psa10 value="0.0124" flag="0" />
<psa30 value="0.0173" flag="0" />
</comp>
<comp name="HHN">
<acc value="0.0068" flag="0" />
<vel value="0.0223" flag="0" />
<psa03 value="0.0105" flag="0" />
<psa10 value="0.0150" flag="0" />
<psa30 value="0.0230" flag="0" />
</comp>
</station>
<station code="ARCZ" name="ARCZ" insttype="LE-3DliteMkII" lat="-43.947" lon="171.177" dist="97.285790" source="" netid="" commtype="" loc="" intensity="4.5">
<comp name="EHE">
<acc value="0.5274" flag="0" />
<vel value="0.8826" flag="T" />
<psa03 value="1.4210" flag="0" />
<psa10 value="1.0937" flag="0" />
<psa30 value="0.1807" flag="T" />
</comp>
<comp name="EHN">
<acc value="0.6231" flag="0" />
<vel value="3.6210" flag="T" />
<psa03 value="1.2079" flag="0" />
<psa10 value="1.0012" flag="0" />
<psa30 value="0.6807" flag="T" />
</comp>
<comp name="EHZ">
<acc value="0.4344" flag="0" />
<vel value="0.4768" flag="T" />
<psa03 value="0.7257" flag="0" />
<psa10 value="0.3646" flag="0" />
<psa30 value="0.1031" flag="T" />
</comp>
</station>
<station code="AWAZ" name="AWAZ" insttype="2" lat="-37.0638" lon="174.643" dist="724.877458" source="" netid="" commtype="" loc="" intensity="1.0">
<comp name="EH1">
<acc value="0.0038" flag="T" />
<vel value="0.0233" flag="T" />
<psa03 value="0.0061" flag="T" />
<psa10 value="0.0091" flag="0" />
<psa30 value="0.0049" flag="0" />
</comp>
<comp name="EH2">
<acc value="0.0013" flag="T" />
<vel value="0.0042" flag="T" />
<psa03 value="0.0040" flag="T" />
<psa10 value="0.0034" flag="0" />
<psa30 value="0.0050" flag="0" />
</comp>
<comp name="EHZ">
<acc value="0.0037" flag="T" />
<vel value="0.0986" flag="T" />
<psa03 value="0.0259" flag="T" />
<psa10 value="0.0213" flag="0" />
<psa30 value="0.0184" flag="0" />
</comp>
</station>
<station code="BFZ" name="BFZ" insttype="STS-2" lat="-40.6796" lon="176.246" dist="489.415922" source="" netid="" commtype="" loc="" intensity="1.1">
<comp name="HHE">
<acc value="0.0076" flag="0" />
<vel value="0.0234" flag="0" />
<psa03 value="0.0143" flag="0" />
<psa10 value="0.0199" flag="0" />
<psa30 value="0.0127" flag="0" />
</comp>
<comp name="HHZ">
<acc value="0.0046" flag="0" />
<vel value="0.0168" flag="0" />
<psa03 value="0.0062" flag="0" />
<psa10 value="0.0138" flag="0" />
<psa30 value="0.0122" flag="0" />
</comp>
<comp name="HHN">
<acc value="0.0081" flag="0" />
<vel value="0.0260" flag="0" />
<psa03 value="0.0174" flag="0" />
<psa10 value="0.0210" flag="0" />
<psa30 value="0.0152" flag="0" />
</comp>
</station>
<station code="BHHZ" name="BHHZ" insttype="LE-3DliteMkII" lat="-39.4893" lon="176.063" dist="563.429466" source="" netid="" commtype="" loc="" intensity="4.1" intensity_flag="T">
<comp name="EHE">
<acc value="0.0053" flag="T" />
<vel value="0.5908" flag="T" />
<psa03 value="0.1562" flag="T" />
<psa10 value="0.1277" flag="T" />
<psa30 value="0.1111" flag="T" />
</comp>
<comp name="EHN">
<acc value="0.0078" flag="T" />
<vel value="1.9062" flag="T" />
<psa03 value="0.5040" flag="T" />
<psa10 value="0.4123" flag="T" />
<psa30 value="0.3586" flag="T" />
</comp>
<comp name="EHZ">
<acc value="0.0043" flag="T" />
<vel value="1.3233" flag="T" />
<psa03 value="0.3496" flag="T" />
<psa10 value="0.2860" flag="T" />
<psa30 value="0.2486" flag="T" />
</comp>
</station>
<station code="BHW" name="BHW" insttype="L4C-3D" lat="-41.4082" lon="174.871" dist="348.525717" source="" netid="" commtype="" loc="" intensity="1.3">
<comp name="EHE">
<acc value="0.0129" flag="0" />
<vel value="0.0339" flag="0" />
<psa03 value="0.0219" flag="0" />
<psa10 value="0.0300" flag="0" />
<psa30 value="0.0153" flag="0" />
</comp>
<comp name="EHN">
<acc value="0.0117" flag="0" />
<vel value="0.0341" flag="0" />
<psa03 value="0.0186" flag="0" />
<psa10 value="0.0327" flag="0" />
<psa30 value="0.0233" flag="0" />
</comp>
<comp name="EHZ">
<acc value="0.0099" flag="0" />
<vel value="0.0455" flag="0" />
<psa03 value="0.0204" flag="0" />
<psa10 value="0.0348" flag="0" />
<psa30 value="0.0109" flag="0" />
</comp>
</station>
<station code="BKZ" name="BKZ" insttype="STS-2" lat="-39.1657" lon="176.493" dist="615.003483" source="" netid="" commtype="" loc="" intensity="1.1">
<comp name="HHE">
<acc value="0.0066" flag="T" />
<vel value="0.0274" flag="T" />
<psa03 value="0.0069" flag="0" />
<psa10 value="0.0138" flag="0" />
<psa30 value="0.0113" flag="0" />
</comp>
<comp name="HHZ">
<acc value="0.0041" flag="T" />
<vel value="0.0142" flag="T" />
<psa03 value="0.0049" flag="0" />
<psa10 value="0.0103" flag="0" />
<psa30 value="0.0081" flag="0" />
</comp>
<comp name="HHN">
<acc value="0.0075" flag="T" />
<vel value="0.0242" flag="T" />
<psa03 value="0.0086" flag="0" />
<psa10 value="0.0266" flag="0" />
<psa30 value="0.0117" flag="0" />
</comp>
</station>
<station code="BSWZ" name="BSWZ" insttype="L4C-3D" lat="-41.7149" lon="173.876" dist="260.853424" source="" netid="" commtype="" loc="" intensity="nan">
<comp name="EHE">
<acc value="0.0410" flag="M" />
<vel value="0.0955" flag="M" />
<psa03 value="0.0450" flag="M" />
<psa10 value="0.0902" flag="M" />
<psa30 value="0.0323" flag="M" />
</comp>
<comp name="EHN">
<acc value="0.0472" flag="M" />
<vel value="0.1614" flag="M" />
<psa03 value="0.0609" flag="M" />
<psa10 value="0.1479" flag="M" />
<psa30 value="0.0448" flag="M" />
</comp>
<comp name="EHZ">
<acc value="0.0305" flag="M" />
<vel value="0.0771" flag="M" />
<psa03 value="0.0336" flag="M" />
<psa10 value="0.0926" flag="M" />
<psa30 value="0.0375" flag="M" />
</comp>
</station>
<station code="CAW" name="CAW" insttype="LE-3DliteMkII" lat="-41.1072" lon="175.066" dist="380.881831" source="" netid="" commtype="" loc="" intensity="4.9" intensity_flag="T">
<comp name="EHE">
<acc value="0.0316" flag="0" />
<vel value="2.7837" flag="T" />
<psa03 value="0.7356" flag="T" />
<psa10 value="0.6018" flag="T" />
<psa30 value="0.5233" flag="T" />
</comp>
<comp name="EHN">
<acc value="0.0431" flag="0" />
<vel value="4.8223" flag="T" />
<psa03 value="1.2745" flag="T" />
<psa10 value="1.0427" flag="T" />
<psa30 value="0.9067" flag="T" />
</comp>
<comp name="EHZ">
<acc value="0.0184" flag="0" />
<vel value="1.0203" flag="T" />
<psa03 value="0.2699" flag="T" />
<psa10 value="0.2207" flag="T" />
<psa30 value="0.1922" flag="T" />
</comp>
</station>
<station code="CKHZ" name="CKHZ" insttype="L4C-3D" lat="-39.6582" lon="177.078" dist="614.369477" source="" netid="" commtype="" loc="" intensity="2.2">
<comp name="EHE">
<acc value="0.0112" flag="T" />
<vel value="0.0957" flag="T" />
<psa03 value="0.0247" flag="T" />
<psa10 value="0.0327" flag="0" />
<psa30 value="0.0349" flag="T" />
</comp>
<comp name="EHN">
<acc value="0.0102" flag="T" />
<vel value="0.0385" flag="T" />
<psa03 value="0.0137" flag="T" />
<psa10 value="0.0306" flag="0" />
<psa30 value="0.0154" flag="T" />
</comp>
<comp name="EHZ">
<acc value="0.0046" flag="T" />
<vel value="0.0164" flag="T" />
<psa03 value="0.0081" flag="T" />
<psa10 value="0.0124" flag="0" />
<psa30 value="0.0090" flag="T" />
</comp>
</station>
<station code="CMWZ" name="CMWZ" insttype="L4C-3D" lat="-41.749" lon="174.214" dist="282.074900" source="" netid="" commtype="" loc="" intensity="2.7">
<comp name="EHE">
<acc value="0.0572" flag="0" />
<vel value="0.1548" flag="0" />
<psa03 value="0.0990" flag="0" />
<psa10 value="0.2216" flag="0" />
<psa30 value="0.0756" flag="0" />
</comp>
<comp name="EHN">
<acc value="0.0722" flag="0" />
<vel value="0.2090" flag="0" />
<psa03 value="0.0978" flag="0" />
<psa10 value="0.2327" flag="0" />
<psa30 value="0.0625" flag="0" />
</comp>
<comp name="EHZ">
<acc value="0.0454" flag="0" />
<vel value="0.0907" flag="0" />
<psa03 value="0.0573" flag="0" />
<psa10 value="0.1336" flag="0" />
<psa30 value="0.0576" flag="0" />
</comp>
</station>
<station code="CNGZ" name="CNGZ" insttype="L4C-3D" lat="-38.4837" lon="178.207" dist="773.955325" source="" netid="" commtype="" loc="" intensity="1.3">
<comp name="EHE">
<acc value="0.0053" flag="T" />
<vel value="0.0314" flag="T" />
<psa03 value="0.0082" flag="T" />
<psa10 value="0.0068" flag="0" />
<psa30 value="0.0058" flag="0" />
</comp>
<comp name="EHN">
<acc value="0.0133" flag="T" />
<vel value="0.0320" flag="T" />
<psa03 value="0.0056" flag="T" />
<psa10 value="0.0078" flag="0" />
<psa30 value="0.0139" flag="0" />
</comp>
<comp name="EHZ">
<acc value="0.0064" flag="T" />
<vel value="0.0249" flag="T" />
<psa03 value="0.0067" flag="T" />
<psa10 value="0.0054" flag="0" />
<psa30 value="0.0052" flag="0" />
</comp>
</station>
<station code="CPWZ" name="CPWZ" insttype="LE-3DliteMkII" lat="-40.9098" lon="176.202" dist="472.330255" source="" netid="" commtype="" loc="" intensity="4.7" intensity_flag="T">
<comp name="EHE">
<acc value="0.0144" flag="T" />
<vel value="3.3663" flag="T" />
<psa03 value="0.8900" flag="T" />
<psa10 value="0.7280" flag="T" />
<psa30 value="0.6332" flag="T" />
</comp>
<comp name="EHN">
<acc value="0.0196" flag="T" />
<vel value="4.0995" flag="T" />
<psa03 value="1.0838" flag="T" />
<psa10 value="0.8865" flag="T" />
<psa30 value="0.7712" flag="T" />
</comp>
<comp name="EHZ">
<acc value="0.0130" flag="T" />
<vel value="0.9568" flag="T" />
<psa03 value="0.2522" flag="T" />
<psa10 value="0.2065" flag="T" />
<psa30 value="0.1792" flag="T" />
</comp>
</station>
<station code="CULC" name="CULC" insttype="CUSP3C" lat="-42.7594" lon="172.803" dist="129.262971" source="" netid="" commtype="" loc="" intensity="4.0">
<comp name="HN2">
<acc value="0.3151" flag="0" />
<vel value="0.7124" flag="0" />
<psa03 value="0.5801" flag="0" />
<psa10 value="0.9175" flag="0" />
<psa30 value="0.2930" flag="0" />
</comp>
<comp name="HNZ">
<acc value="0.2420" flag="0" />
<vel value="0.4862" flag="0" />
<psa03 value="0.4027" flag="0" />
<psa10 value="0.8576" flag="0" />
<psa30 value="0.2397" flag="0" />
</comp>
<comp name="HN1">
<acc value="0.7438" flag="0" />
<vel value="1.5781" flag="0" />
<psa03 value="0.9725" flag="0" />
<psa10 value="1.9279" flag="0" />
<psa30 value="0.4759" flag="0" />
</comp>
</station>
<station code="CVZ" name="CVZ" insttype="CMG-3ESPC" lat="-44.3831" lon="171.006" dist="146.855254" source="" netid="" commtype="" loc="" intensity="3.0">
<comp name="HHE">
<acc value="0.2434" flag="0" />
<vel value="0.3073" flag="0" />
<psa03 value="0.4947" flag="0" />
<psa10 value="0.4907" flag="0" />
<psa30 value="0.1327" flag="0" />
</comp>
<comp name="HHZ">
<acc value="0.1478" flag="0" />
<vel value="0.1607" flag="0" />
<psa03 value="0.3528" flag="0" />
<psa10 value="0.2198" flag="0" />
<psa30 value="0.0511" flag="0" />
</comp>
<comp name="HHN">
<acc value="0.2505" flag="0" />
<vel value="0.3653" flag="0" />
<psa03 value="0.6257" flag="0" />
<psa10 value="0.5355" flag="0" />
<psa30 value="0.0830" flag="0" />
</comp>
</station>
<station code="DCZ" name="DCZ" insttype="CMG-3ESP" lat="-45.4647" lon="167.154" dist="420.098432" source="" netid="" commtype="" loc="" intensity="1.1">
<comp name="HHE">
<acc value="0.0096" flag="0" />
<vel value="0.0222" flag="0" />
<psa03 value="0.0184" flag="0" />
<psa10 value="0.0237" flag="0" />
<psa30 value="0.0098" flag="0" />
</comp>
<comp name="HHZ">
<acc value="0.0125" flag="0" />
<vel value="0.0265" flag="0" />
<psa03 value="0.0287" flag="0" />
<psa10 value="0.0252" flag="0" />
<psa30 value="0.0171" flag="0" />
</comp>
<comp name="HHN">
<acc value="0.0121" flag="0" />
<vel value="0.0276" flag="0" />
<psa03 value="0.0160" flag="0" />
<psa10 value="0.0303" flag="0" />
<psa30 value="0.0123" flag="0" />
</comp>
</station>
<station code="DREZ" name="DREZ" insttype="L4C-3D" lat="-39.1888" lon="174.201" dist="494.732390" source="" netid="" commtype="" loc="" intensity="2.2">
<comp name="EHE">
<acc value="0.0451" flag="T" />
<vel value="0.0917" flag="T" />
<psa03 value="0.0523" flag="T" />
<psa10 value="0.1502" flag="0" />
<psa30 value="0.0354" flag="0" />
</comp>
<comp name="EHN">
<acc value="0.0453" flag="T" />
<vel value="0.0983" flag="T" />
<psa03 value="0.0626" flag="T" />
<psa10 value="0.1597" flag="0" />
<psa30 value="0.0478" flag="0" />
</comp>
<comp name="EHZ">
<acc value="0.0201" flag="T" />
<vel value="0.0437" flag="T" />
<psa03 value="0.0300" flag="T" />
<psa10 value="0.0728" flag="0" />
<psa30 value="0.0131" flag="0" />
</comp>
</station>
<station code="DRZ" name="DRZ" insttype="L4C-3D" lat="-39.2753" lon="175.564" dist="552.808942" source="" netid="" commtype="" loc="" intensity="2.1">
<comp name="EHE">
<acc value="0.0740" flag="T" />
<vel value="0.0912" flag="T" />
<psa03 value="0.1140" flag="T" />
<psa10 value="0.1761" flag="T" />
<psa30 value="0.0235" flag="0" />
</comp>
<comp name="EHN">
<acc value="0.0580" flag="T" />
<vel value="0.0837" flag="T" />
<psa03 value="0.0944" flag="T" />
<psa10 value="0.1682" flag="T" />
<psa30 value="0.0168" flag="0" />
</comp>
<comp name="EHZ">
<acc value="0.0252" flag="T" />
<vel value="0.0351" flag="T" />
<psa03 value="0.0502" flag="T" />
<psa10 value="0.0495" flag="T" />
<psa30 value="0.0071" flag="0" />
</comp>
</station>
